{
  "type": "FeatureCollection",
  "generator": "overpass-turbo",
  "copyright": "The data included in this document is from www.openstreetmap.org. The data is made available under ODbL.",
  "timestamp": "2025-12-25T06:19:38Z",
  "features": [
    {
      "type": "Feature",
      "properties": {
        "@id": "way/34200847",
        "highway": "secondary",
        "surface": "asphalt"
      },
      "geometry": {
        "type": "LineString",
        "coordinates": [
          [
            86.6523081,
            54.010866
          ],
          [
            86.6529787,
            54.0109038
          ],
          [
            86.6534212,
            54.010922
          ],
          [
            86.6538396,
            54.0109291
          ],
          [
            86.6544807,
            54.0109322
          ],
          [
            86.6555133,
            54.0109275
          ],
          [
            86.6563636,
            54.0109354
          ],
          [
            86.6570234,
            54.0109622
          ],
          [
            86.657584,
            54.0110031
          ],
          [
            86.6580561,
            54.0110662
          ],
          [
            86.6584906,
            54.0111324
          ],
          [
            86.6588849,
            54.0112065
          ],
          [
            86.6593757,
            54.0113278
          ],
          [
            86.6598102,
            54.0114618
          ],
          [
            86.660336,
            54.0116462
          ],
          [
            86.6610414,
            54.0119094
          ],
          [
            86.6619667,
            54.0122814
          ],
          [
            86.6630155,
            54.0127148
          ],
          [
            86.6634715,
            54.0129008
          ],
          [
            86.6638952,
            54.0130395
          ],
          [
            86.6642815,
            54.0131813
          ],
          [
            86.6645819,
            54.0132664
          ],
          [
            86.6649574,
            54.0133389
          ],
          [
            86.6653436,
            54.0133862
          ],
          [
            86.6658533,
            54.0134146
          ],
          [
            86.6664809,
            54.0134146
          ],
          [
            86.6676933,
            54.0133925
          ],
          [
            86.6687554,
            54.0133673
          ],
          [
            86.669839,
            54.0133106
          ],
          [
            86.6706276,
            54.0132601
          ],
          [
            86.671502,
            54.0131939
          ],
          [
            86.6722745,
            54.0131183
          ],
          [
            86.6727894,
            54.0130458
          ],
          [
            86.6732401,
            54.0129638
          ],
          [
            86.6736478,
            54.0128724
          ],
          [
            86.6738999,
            54.0127778
          ],
          [
            86.6741359,
            54.0126864
          ],
          [
            86.6743773,
            54.0125572
          ],
          [
            86.6749057,
            54.0121758
          ],
          [
            86.6752695,
            54.0119086
          ],
          [
            86.6757694,
            54.0115414
          ]
        ]
      },
      "id": "way/34200847"
    },
    {
      "type": "Feature",
      "properties": {
        "@id": "way/35823406",
        "highway": "secondary",
        "lanes": "2",
        "name": "Подъезд к г. Киселевску",
        "ref": "32К-217"
      },
      "geometry": {
        "type": "LineString",
        "coordinates": [
          [
            86.6826187,
            54.0517527
          ],
          [
            86.6835229,
            54.0519336
          ],
          [
            86.6929214,
            54.054503
          ],
          [
            86.7077992,
            54.058532
          ],
          [
            86.7099699,
            54.0591198
          ],
          [
            86.7158796,
            54.0607914
          ],
          [
            86.7320745,
            54.0661948
          ],
          [
            86.7343898,
            54.0671215
          ],
          [
            86.7354445,
            54.0675436
          ]
        ]
      },
      "id": "way/35823406"
    },
    {
      "type": "Feature",
      "properties": {
        "@id": "way/52336486",
        "highway": "secondary",
        "name": "Транспортная улица",
        "surface": "asphalt"
      },
      "geometry": {
        "type": "LineString",
        "coordinates": [
          [
            86.6523081,
            54.010866
          ],
          [
            86.6515032,
            54.0107778
          ],
          [
            86.6501117,
            54.0106088
          ],
          [
            86.6476461,
            54.0099148
          ],
          [
            86.644891,
            54.009325
          ],
          [
            86.6447653,
            54.0092981
          ],
          [
            86.6446966,
            54.0092831
          ]
        ]
      },
      "id": "way/52336486"
    },
    {
      "type": "Feature",
      "properties": {
        "@id": "way/63091591",
        "highway": "secondary",
        "oneway": "yes",
        "surface": "asphalt"
      },
      "geometry": {
        "type": "LineString",
        "coordinates": [
          [
            86.6355478,
            54.0060975
          ],
          [
            86.6361611,
            54.0059886
          ],
          [
            86.6365754,
            54.0059286
          ]
        ]
      },
      "id": "way/63091591"
    },
    {
      "type": "Feature",
      "properties": {
        "@id": "way/63091596",
        "highway": "secondary",
        "name": "Транспортный переулок",
        "surface": "asphalt"
      },
      "geometry": {
        "type": "LineString",
        "coordinates": [
          [
            86.6355478,
            54.0060975
          ],
          [
            86.63548,
            54.0061349
          ],
          [
            86.635143,
            54.0063206
          ],
          [
            86.6338968,
            54.0070073
          ],
          [
            86.6336454,
            54.0071459
          ],
          [
            86.6333849,
            54.0072894
          ],
          [
            86.6326123,
            54.0074624
          ],
          [
            86.6323516,
            54.0075222
          ],
          [
            86.6322302,
            54.0075468
          ],
          [
            86.6311755,
            54.0076938
          ],
          [
            86.6309524,
            54.0076802
          ],
          [
            86.6307832,
            54.0076374
          ],
          [
            86.6306085,
            54.0075699
          ],
          [
            86.6303523,
            54.0073226
          ],
          [
            86.6299458,
            54.0070808
          ]
        ]
      },
      "id": "way/63091596"
    },
    {
      "type": "Feature",
      "properties": {
        "@id": "way/63091644",
        "highway": "secondary",
        "junction": "roundabout",
        "oneway": "yes",
        "surface": "asphalt"
      },
      "geometry": {
        "type": "LineString",
        "coordinates": [
          [
            86.6370026,
            54.006044
          ],
          [
            86.6369967,
            54.0060986
          ],
          [
            86.6369594,
            54.0061487
          ],
          [
            86.6368952,
            54.0061884
          ],
          [
            86.6368118,
            54.0062127
          ],
          [
            86.6367437,
            54.006219
          ],
          [
            86.6366516,
            54.006211
          ],
          [
            86.6365595,
            54.00618
          ],
          [
            86.6365012,
            54.0061374
          ],
          [
            86.6364713,
            54.0060856
          ],
          [
            86.6364695,
            54.0060455
          ],
          [
            86.636495,
            54.0059929
          ],
          [
            86.6365754,
            54.0059286
          ],
          [
            86.6366448,
            54.0059135
          ],
          [
            86.6367365,
            54.005904
          ],
          [
            86.6368282,
            54.0059136
          ],
          [
            86.6369375,
            54.0059575
          ],
          [
            86.6369859,
            54.0060042
          ],
          [
            86.6370026,
            54.006044
          ]
        ]
      },
      "id": "way/63091644"
    },
    {
      "type": "Feature",
      "properties": {
        "@id": "way/63091754",
        "highway": "secondary",
        "name": "улица Дзержинского",
        "name:etymology:wikidata": "Q188570"
      },
      "geometry": {
        "type": "LineString",
        "coordinates": [
          [
            86.6256094,
            54.0204986
          ],
          [
            86.625727,
            54.0202545
          ],
          [
            86.6258284,
            54.0200153
          ],
          [
            86.6258829,
            54.0198866
          ],
          [
            86.6262444,
            54.0190333
          ],
          [
            86.6265165,
            54.0183911
          ],
          [
            86.6267976,
            54.0177277
          ],
          [
            86.6271204,
            54.0169655
          ],
          [
            86.6274556,
            54.0163101
          ]
        ]
      },
      "id": "way/63091754"
    },
    {
      "type": "Feature",
      "properties": {
        "@id": "way/80879411",
        "highway": "secondary",
        "lanes": "2",
        "lit": "yes",
        "maxspeed": "RU:urban",
        "name": "Пионерская улица",
        "source:maxspeed": "implicit",
        "surface": "asphalt"
      },
      "geometry": {
        "type": "LineString",
        "coordinates": [
          [
            86.5384663,
            54.0029327
          ],
          [
            86.5385145,
            54.0030164
          ],
          [
            86.5385996,
            54.0031038
          ],
          [
            86.538789,
            54.0031946
          ],
          [
            86.5390761,
            54.0033021
          ],
          [
            86.5395526,
            54.0034557
          ],
          [
            86.5406831,
            54.0038533
          ],
          [
            86.5418306,
            54.0042594
          ],
          [
            86.5423055,
            54.0044183
          ],
          [
            86.5440454,
            54.0050573
          ],
          [
            86.5448206,
            54.0053429
          ],
          [
            86.5451491,
            54.0054636
          ],
          [
            86.5454031,
            54.0055572
          ],
          [
            86.5469459,
            54.0060994
          ],
          [
            86.5487714,
            54.0067791
          ],
          [
            86.5499671,
            54.0072144
          ],
          [
            86.5514784,
            54.0077563
          ],
          [
            86.5522483,
            54.0080588
          ]
        ]
      },
      "id": "way/80879411"
    },
    {
      "type": "Feature",
      "properties": {
        "@id": "way/80879421",
        "highway": "secondary",
        "lanes": "2",
        "lit": "yes",
        "maxspeed": "RU:urban",
        "name": "Краснобродская улица",
        "source:maxspeed": "implicit",
        "surface": "asphalt"
      },
      "geometry": {
        "type": "LineString",
        "coordinates": [
          [
            86.5636391,
            53.9995321
          ],
          [
            86.5633513,
            53.9996994
          ],
          [
            86.5628858,
            54.0000855
          ],
          [
            86.5625851,
            54.0003349
          ],
          [
            86.5625256,
            54.0003724
          ],
          [
            86.5622766,
            54.0005611
          ],
          [
            86.5617797,
            54.0009071
          ],
          [
            86.5606704,
            54.0017316
          ],
          [
            86.5605085,
            54.0018499
          ],
          [
            86.5603806,
            54.0019454
          ],
          [
            86.5598145,
            54.0023714
          ],
          [
            86.5593253,
            54.0027559
          ]
        ]
      },
      "id": "way/80879421"
    },
    {
      "type": "Feature",
      "properties": {
        "@id": "way/80879430",
        "highway": "secondary",
        "lanes": "2",
        "lit": "yes",
        "maxspeed": "RU:urban",
        "name": "Западный проезд",
        "source:maxspeed": "implicit",
        "surface": "asphalt"
      },
      "geometry": {
        "type": "LineString",
        "coordinates": [
          [
            86.5489836,
            53.9919541
          ],
          [
            86.5487088,
            53.9922202
          ],
          [
            86.5479919,
            53.9929145
          ],
          [
            86.5477291,
            53.9931597
          ],
          [
            86.5476396,
            53.9932573
          ],
          [
            86.5468425,
            53.9940621
          ],
          [
            86.5467386,
            53.994162
          ],
          [
            86.5457545,
            53.9951875
          ],
          [
            86.5444165,
            53.9965637
          ],
          [
            86.5434827,
            53.99754
          ]
        ]
      },
      "id": "way/80879430"
    },
    {
      "type": "Feature",
      "properties": {
        "@id": "way/118218298",
        "highway": "secondary",
        "oneway": "yes",
        "surface": "asphalt"
      },
      "geometry": {
        "type": "LineString",
        "coordinates": [
          [
            86.6370242,
            54.0057284
          ],
          [
            86.6369859,
            54.0060042
          ]
        ]
      },
      "id": "way/118218298"
    },
    {
      "type": "Feature",
      "properties": {
        "@id": "way/118222675",
        "highway": "secondary",
        "name": "Советская улица"
      },
      "geometry": {
        "type": "LineString",
        "coordinates": [
          [
            86.6417191,
            54.002978
          ],
          [
            86.6426088,
            54.0024051
          ],
          [
            86.6433457,
            54.0018587
          ],
          [
            86.6440117,
            54.0010812
          ],
          [
            86.6442671,
            54.0007314
          ],
          [
            86.6444379,
            54.0004878
          ],
          [
            86.6445916,
            54.0002778
          ],
          [
            86.6447305,
            54.0000601
          ],
          [
            86.6449968,
            53.9997688
          ],
          [
            86.6457787,
            53.9991121
          ],
          [
            86.6460573,
            53.9989116
          ]
        ]
      },
      "id": "way/118222675"
    },
    {
      "type": "Feature",
      "properties": {
        "@id": "way/118261408",
        "highway": "secondary",
        "lanes": "2",
        "name": "улица Маяковского",
        "name:etymology:wikidata": "Q132964",
        "oneway": "yes",
        "surface": "asphalt"
      },
      "geometry": {
        "type": "LineString",
        "coordinates": [
          [
            86.6290751,
            54.0089377
          ],
          [
            86.6298748,
            54.0087958
          ],
          [
            86.6305883,
            54.0086684
          ],
          [
            86.6307259,
            54.0086454
          ],
          [
            86.6308509,
            54.0086349
          ],
          [
            86.6309991,
            54.0086295
          ],
          [
            86.6311723,
            54.008644
          ],
          [
            86.6313189,
            54.0086856
          ],
          [
            86.6315803,
            54.008879
          ],
          [
            86.6318703,
            54.0092454
          ],
          [
            86.6319252,
            54.0094158
          ],
          [
            86.6317953,
            54.009804
          ],
          [
            86.6316909,
            54.0100286
          ],
          [
            86.6315833,
            54.0102656
          ],
          [
            86.6315602,
            54.0103165
          ],
          [
            86.6314414,
            54.0105782
          ],
          [
            86.6313067,
            54.0108748
          ],
          [
            86.6312228,
            54.0110597
          ],
          [
            86.6309952,
            54.0115844
          ],
          [
            86.6309285,
            54.0117381
          ],
          [
            86.6308169,
            54.0120087
          ],
          [
            86.6307985,
            54.0120492
          ],
          [
            86.6307399,
            54.0121784
          ],
          [
            86.6305414,
            54.0126418
          ],
          [
            86.630427,
            54.012909
          ],
          [
            86.6303938,
            54.0129866
          ],
          [
            86.6303138,
            54.0131734
          ],
          [
            86.6302679,
            54.0132805
          ],
          [
            86.6300796,
            54.0137203
          ],
          [
            86.6298047,
            54.0143738
          ],
          [
            86.6297261,
            54.0145605
          ],
          [
            86.6294983,
            54.0149045
          ],
          [
            86.6294391,
            54.0149939
          ],
          [
            86.6292443,
            54.0151473
          ],
          [
            86.6290832,
            54.0152741
          ],
          [
            86.6284276,
            54.0156947
          ],
          [
            86.6282175,
            54.0157812
          ],
          [
            86.6280435,
            54.0158529
          ],
          [
            86.6277843,
            54.0159845
          ],
          [
            86.6276716,
            54.0160792
          ],
          [
            86.6274556,
            54.0163101
          ]
        ]
      },
      "id": "way/118261408"
    },
    {
      "type": "Feature",
      "properties": {
        "@id": "way/125705609",
        "highway": "primary",
        "name": "улица Панфилова",
        "old_ref": "32К-2",
        "surface": "asphalt"
      },
      "geometry": {
        "type": "LineString",
        "coordinates": [
          [
            86.7091999,
            53.9665754
          ],
          [
            86.7098905,
            53.9658274
          ],
          [
            86.7105296,
            53.9651956
          ],
          [
            86.7113703,
            53.9643735
          ],
          [
            86.7120838,
            53.9636477
          ],
          [
            86.7127141,
            53.9630181
          ],
          [
            86.7132586,
            53.9624989
          ],
          [
            86.7143843,
            53.9613762
          ],
          [
            86.7145632,
            53.9611861
          ],
          [
            86.7147209,
            53.9610084
          ],
          [
            86.7148224,
            53.9608568
          ]
        ]
      },
      "id": "way/125705609"
    },
    {
      "type": "Feature",
      "properties": {
        "@id": "way/132730561",
        "highway": "secondary",
        "name": "улица Льва Толстого"
      },
      "geometry": {
        "type": "LineString",
        "coordinates": [
          [
            86.6256094,
            54.0204986
          ],
          [
            86.6248227,
            54.0214235
          ],
          [
            86.6242363,
            54.0221254
          ],
          [
            86.6240932,
            54.0223247
          ],
          [
            86.6240582,
            54.0223734
          ],
          [
            86.6238528,
            54.0227181
          ],
          [
            86.623702,
            54.0231931
          ],
          [
            86.6236858,
            54.0234011
          ],
          [
            86.6237785,
            54.0236195
          ],
          [
            86.6239533,
            54.0238254
          ],
          [
            86.6241837,
            54.0240969
          ]
        ]
      },
      "id": "way/132730561"
    },
    {
      "type": "Feature",
      "properties": {
        "@id": "way/132814665",
        "highway": "secondary",
        "oneway": "yes"
      },
      "geometry": {
        "type": "LineString",
        "coordinates": [
          [
            86.6261794,
            54.0089785
          ],
          [
            86.6254436,
            54.0091675
          ]
        ]
      },
      "id": "way/132814665"
    },
    {
      "type": "Feature",
      "properties": {
        "@id": "way/132814804",
        "highway": "secondary",
        "oneway": "yes"
      },
      "geometry": {
        "type": "LineString",
        "coordinates": [
          [
            86.6268738,
            54.0095157
          ],
          [
            86.6267013,
            54.0095287
          ],
          [
            86.6265846,
            54.0094852
          ],
          [
            86.6263462,
            54.0091014
          ],
          [
            86.6261794,
            54.0089785
          ]
        ]
      },
      "id": "way/132814804"
    },
    {
      "type": "Feature",
      "properties": {
        "@id": "way/132818231",
        "highway": "secondary",
        "lanes": "2",
        "name": "улица Дзержинского",
        "name:etymology:wikidata": "Q188570",
        "oneway": "yes",
        "surface": "asphalt"
      },
      "geometry": {
        "type": "LineString",
        "coordinates": [
          [
            86.6274556,
            54.0163101
          ],
          [
            86.6276422,
            54.0159492
          ],
          [
            86.6277179,
            54.0157062
          ],
          [
            86.6277434,
            54.0156306
          ],
          [
            86.6279385,
            54.0150531
          ],
          [
            86.6279625,
            54.0149822
          ],
          [
            86.6279955,
            54.0148845
          ],
          [
            86.628111,
            54.0145606
          ],
          [
            86.6282027,
            54.0143035
          ],
          [
            86.628302,
            54.014025
          ],
          [
            86.6283689,
            54.0138374
          ],
          [
            86.628413,
            54.0137224
          ],
          [
            86.6284598,
            54.0136005
          ],
          [
            86.6287312,
            54.0127857
          ],
          [
            86.6287482,
            54.0127414
          ],
          [
            86.6290576,
            54.0119186
          ],
          [
            86.6292473,
            54.0114568
          ],
          [
            86.6293189,
            54.0112882
          ],
          [
            86.6294147,
            54.0110744
          ],
          [
            86.6295931,
            54.0106625
          ],
          [
            86.6297586,
            54.0103015
          ],
          [
            86.6300926,
            54.0095591
          ],
          [
            86.6301837,
            54.0093853
          ],
          [
            86.6302289,
            54.0092973
          ],
          [
            86.6302789,
            54.0091427
          ],
          [
            86.6301276,
            54.0090192
          ],
          [
            86.6300219,
            54.0089628
          ],
          [
            86.629736,
            54.0089356
          ],
          [
            86.6292254,
            54.0089361
          ],
          [
            86.6290751,
            54.0089377
          ]
        ]
      },
      "id": "way/132818231"
    },
    {
      "type": "Feature",
      "properties": {
        "@id": "way/133304158",
        "highway": "secondary",
        "oneway": "yes"
      },
      "geometry": {
        "type": "LineString",
        "coordinates": [
          [
            86.6374956,
            54.0063033
          ],
          [
            86.6367437,
            54.006219
          ]
        ]
      },
      "id": "way/133304158"
    },
    {
      "type": "Feature",
      "properties": {
        "@id": "way/133340005",
        "highway": "secondary",
        "oneway": "yes"
      },
      "geometry": {
        "type": "LineString",
        "coordinates": [
          [
            86.6271221,
            54.0085777
          ],
          [
            86.6264995,
            54.008872
          ]
        ]
      },
      "id": "way/133340005"
    },
    {
      "type": "Feature",
      "properties": {
        "@id": "way/133340006",
        "highway": "secondary",
        "oneway": "yes"
      },
      "geometry": {
        "type": "LineString",
        "coordinates": [
          [
            86.6264995,
            54.008872
          ],
          [
            86.6265507,
            54.0090463
          ],
          [
            86.6268738,
            54.0095157
          ]
        ]
      },
      "id": "way/133340006"
    },
    {
      "type": "Feature",
      "properties": {
        "@id": "way/133340007",
        "highway": "secondary",
        "oneway": "yes"
      },
      "geometry": {
        "type": "LineString",
        "coordinates": [
          [
            86.6263734,
            54.0086708
          ],
          [
            86.6271221,
            54.0085777
          ]
        ]
      },
      "id": "way/133340007"
    },
    {
      "type": "Feature",
      "properties": {
        "@id": "way/133340019",
        "highway": "secondary"
      },
      "geometry": {
        "type": "LineString",
        "coordinates": [
          [
            86.6268738,
            54.0095157
          ],
          [
            86.6271972,
            54.0095511
          ]
        ]
      },
      "id": "way/133340019"
    },
    {
      "type": "Feature",
      "properties": {
        "@id": "way/133340021",
        "highway": "secondary",
        "lit": "yes",
        "passing_places": "no",
        "source:maxspeed": "implicit"
      },
      "geometry": {
        "type": "LineString",
        "coordinates": [
          [
            86.6254436,
            54.0091675
          ],
          [
            86.6247968,
            54.0094074
          ],
          [
            86.6240434,
            54.0095848
          ],
          [
            86.6235341,
            54.0096747
          ],
          [
            86.6230642,
            54.0097097
          ],
          [
            86.622006,
            54.0097208
          ],
          [
            86.6212284,
            54.0096833
          ],
          [
            86.620705,
            54.0096346
          ],
          [
            86.6204864,
            54.0096143
          ],
          [
            86.6161906,
            54.0087738
          ],
          [
            86.6157055,
            54.0087091
          ],
          [
            86.6152499,
            54.0086796
          ],
          [
            86.614643,
            54.0086558
          ],
          [
            86.6143028,
            54.0086424
          ],
          [
            86.6134341,
            54.0086483
          ],
          [
            86.6127218,
            54.0086585
          ],
          [
            86.612125,
            54.0087013
          ],
          [
            86.611517,
            54.0087742
          ],
          [
            86.6107276,
            54.0089285
          ],
          [
            86.6101187,
            54.0090671
          ],
          [
            86.6095447,
            54.0092272
          ],
          [
            86.6078602,
            54.0097068
          ],
          [
            86.6058444,
            54.010341
          ],
          [
            86.6043539,
            54.0108185
          ],
          [
            86.6027018,
            54.0111057
          ],
          [
            86.6003699,
            54.0111717
          ],
          [
            86.5912873,
            54.0108844
          ],
          [
            86.5885952,
            54.0103571
          ],
          [
            86.5860171,
            54.0096251
          ],
          [
            86.5836147,
            54.0086706
          ],
          [
            86.5807555,
            54.007608
          ],
          [
            86.5794742,
            54.0070357
          ],
          [
            86.576732,
            54.005703
          ],
          [
            86.5753848,
            54.0050906
          ],
          [
            86.5753307,
            54.0050704
          ],
          [
            86.5752803,
            54.0050448
          ],
          [
            86.5745782,
            54.0047307
          ],
          [
            86.5719268,
            54.003491
          ],
          [
            86.5707174,
            54.0028753
          ],
          [
            86.5702162,
            54.0025845
          ],
          [
            86.5697489,
            54.0023002
          ],
          [
            86.5694544,
            54.002121
          ],
          [
            86.5688807,
            54.0017454
          ],
          [
            86.5686996,
            54.0016399
          ],
          [
            86.5683601,
            54.0014603
          ],
          [
            86.5682955,
            54.0014195
          ],
          [
            86.5681592,
            54.0013592
          ],
          [
            86.5679026,
            54.0012455
          ],
          [
            86.5673739,
            54.001007
          ],
          [
            86.5669115,
            54.0008075
          ],
          [
            86.5651977,
            54.0001221
          ],
          [
            86.5651072,
            54.0000878
          ],
          [
            86.5636391,
            53.9995321
          ]
        ]
      },
      "id": "way/133340021"
    },
    {
      "type": "Feature",
      "properties": {
        "@id": "way/133340057",
        "highway": "secondary",
        "oneway": "yes"
      },
      "geometry": {
        "type": "LineString",
        "coordinates": [
          [
            86.6254436,
            54.0091675
          ],
          [
            86.6259739,
            54.0087493
          ]
        ]
      },
      "id": "way/133340057"
    },
    {
      "type": "Feature",
      "properties": {
        "@id": "way/133340424",
        "highway": "secondary",
        "oneway": "yes",
        "surface": "asphalt"
      },
      "geometry": {
        "type": "LineString",
        "coordinates": [
          [
            86.6366516,
            54.006211
          ],
          [
            86.6355478,
            54.0060975
          ]
        ]
      },
      "id": "way/133340424"
    },
    {
      "type": "Feature",
      "properties": {
        "@id": "way/133340426",
        "highway": "secondary",
        "oneway": "yes"
      },
      "geometry": {
        "type": "LineString",
        "coordinates": [
          [
            86.6370026,
            54.006044
          ],
          [
            86.6374956,
            54.0063033
          ]
        ]
      },
      "id": "way/133340426"
    },
    {
      "type": "Feature",
      "properties": {
        "@id": "way/133340562",
        "highway": "secondary",
        "name": "Советская улица",
        "surface": "asphalt"
      },
      "geometry": {
        "type": "LineString",
        "coordinates": [
          [
            86.6370242,
            54.0057284
          ],
          [
            86.6370934,
            54.0056879
          ],
          [
            86.6379032,
            54.0052135
          ],
          [
            86.6390876,
            54.0045197
          ],
          [
            86.6402823,
            54.0038198
          ],
          [
            86.6417191,
            54.002978
          ]
        ]
      },
      "id": "way/133340562"
    },
    {
      "type": "Feature",
      "properties": {
        "@id": "way/133340563",
        "highway": "secondary",
        "oneway": "yes",
        "surface": "asphalt"
      },
      "geometry": {
        "type": "LineString",
        "coordinates": [
          [
            86.6366448,
            54.0059135
          ],
          [
            86.6370242,
            54.0057284
          ]
        ]
      },
      "id": "way/133340563"
    },
    {
      "type": "Feature",
      "properties": {
        "@id": "way/154197765",
        "highway": "secondary",
        "lit": "no",
        "maxspeed": "RU:urban",
        "passing_places": "no",
        "source:maxspeed": "implicit"
      },
      "geometry": {
        "type": "LineString",
        "coordinates": [
          [
            86.5451307,
            53.9871187
          ],
          [
            86.5453013,
            53.9872785
          ],
          [
            86.5455776,
            53.9875967
          ],
          [
            86.5458069,
            53.9878608
          ],
          [
            86.5460329,
            53.9881356
          ],
          [
            86.547206,
            53.9895618
          ],
          [
            86.5472612,
            53.9896361
          ],
          [
            86.5489836,
            53.9919541
          ]
        ]
      },
      "id": "way/154197765"
    },
    {
      "type": "Feature",
      "properties": {
        "@id": "way/154661159",
        "highway": "primary",
        "name": "улица Панфилова",
        "old_ref": "32К-2",
        "surface": "asphalt"
      },
      "geometry": {
        "type": "LineString",
        "coordinates": [
          [
            86.7037354,
            53.9719945
          ],
          [
            86.703857,
            53.9718558
          ],
          [
            86.7041069,
            53.971584
          ],
          [
            86.7042883,
            53.9714148
          ],
          [
            86.7048134,
            53.9709251
          ],
          [
            86.7056407,
            53.9701233
          ],
          [
            86.7062819,
            53.9694808
          ],
          [
            86.7069275,
            53.9688279
          ],
          [
            86.7087516,
            53.9670307
          ],
          [
            86.7091999,
            53.9665754
          ]
        ]
      },
      "id": "way/154661159"
    },
    {
      "type": "Feature",
      "properties": {
        "@id": "way/168179011",
        "highway": "primary",
        "name": "Горняцкая улица",
        "old_ref": "32К-2"
      },
      "geometry": {
        "type": "LineString",
        "coordinates": [
          [
            86.7148224,
            53.9608568
          ],
          [
            86.7150002,
            53.9606199
          ],
          [
            86.7150542,
            53.9605226
          ],
          [
            86.7154312,
            53.9598621
          ],
          [
            86.7163709,
            53.9581501
          ],
          [
            86.7171149,
            53.9568093
          ]
        ]
      },
      "id": "way/168179011"
    },
    {
      "type": "Feature",
      "properties": {
        "@id": "way/169926512",
        "highway": "secondary",
        "name": "улица Ленина",
        "name:etymology:wikidata": "Q1394"
      },
      "geometry": {
        "type": "LineString",
        "coordinates": [
          [
            86.6303797,
            54.0068012
          ],
          [
            86.6302414,
            54.0068883
          ],
          [
            86.6299458,
            54.0070808
          ]
        ]
      },
      "id": "way/169926512"
    },
    {
      "type": "Feature",
      "properties": {
        "@id": "way/245287270",
        "highway": "secondary",
        "name": "улица Дзержинского",
        "name:etymology:wikidata": "Q188570",
        "oneway": "yes"
      },
      "geometry": {
        "type": "LineString",
        "coordinates": [
          [
            86.6302789,
            54.0091427
          ],
          [
            86.6304487,
            54.0088918
          ],
          [
            86.6305485,
            54.0087807
          ],
          [
            86.6307259,
            54.0086454
          ]
        ]
      },
      "id": "way/245287270"
    },
    {
      "type": "Feature",
      "properties": {
        "@id": "way/255992034",
        "highway": "secondary",
        "name": "Днепропетровская улица"
      },
      "geometry": {
        "type": "LineString",
        "coordinates": [
          [
            86.6271972,
            54.0095511
          ],
          [
            86.6275302,
            54.0094581
          ],
          [
            86.628287,
            54.0091771
          ]
        ]
      },
      "id": "way/255992034"
    },
    {
      "type": "Feature",
      "properties": {
        "@id": "way/255992037",
        "highway": "secondary"
      },
      "geometry": {
        "type": "LineString",
        "coordinates": [
          [
            86.628287,
            54.0091771
          ],
          [
            86.6286996,
            54.0090426
          ],
          [
            86.6290751,
            54.0089377
          ]
        ]
      },
      "id": "way/255992037"
    },
    {
      "type": "Feature",
      "properties": {
        "@id": "way/267252996",
        "highway": "primary",
        "name": "улица Попова",
        "old_ref": "32К-2"
      },
      "geometry": {
        "type": "LineString",
        "coordinates": [
          [
            86.6976625,
            53.982201
          ],
          [
            86.6966557,
            53.9806679
          ],
          [
            86.6965076,
            53.9802732
          ],
          [
            86.696616,
            53.9798943
          ],
          [
            86.6970017,
            53.9792803
          ],
          [
            86.697336,
            53.9787459
          ],
          [
            86.6976834,
            53.9783166
          ],
          [
            86.6979317,
            53.9781582
          ],
          [
            86.6982488,
            53.9780446
          ],
          [
            86.7036318,
            53.9764807
          ],
          [
            86.7048542,
            53.9760058
          ],
          [
            86.7053837,
            53.9757907
          ],
          [
            86.7056299,
            53.9756777
          ],
          [
            86.7058762,
            53.9755394
          ],
          [
            86.705976,
            53.9754391
          ],
          [
            86.7060634,
            53.9753242
          ],
          [
            86.7062786,
            53.9747911
          ],
          [
            86.7064144,
            53.9744009
          ],
          [
            86.7065041,
            53.9740875
          ],
          [
            86.7064935,
            53.9738606
          ],
          [
            86.7064304,
            53.9736572
          ],
          [
            86.7063194,
            53.9734853
          ],
          [
            86.7061992,
            53.9733504
          ],
          [
            86.7060543,
            53.9732499
          ],
          [
            86.7057277,
            53.9730926
          ],
          [
            86.7041809,
            53.9724496
          ],
          [
            86.7039321,
            53.9723132
          ],
          [
            86.7037851,
            53.9721646
          ],
          [
            86.7037354,
            53.9719945
          ]
        ]
      },
      "id": "way/267252996"
    },
    {
      "type": "Feature",
      "properties": {
        "@id": "way/267391851",
        "highway": "secondary",
        "lanes": "2",
        "name": "Стандартная улица",
        "surface": "asphalt"
      },
      "geometry": {
        "type": "LineString",
        "coordinates": [
          [
            86.6366818,
            54.0276949
          ],
          [
            86.6368344,
            54.0276959
          ],
          [
            86.6371233,
            54.0277705
          ],
          [
            86.6380441,
            54.0283025
          ],
          [
            86.6382958,
            54.0284004
          ],
          [
            86.6385752,
            54.0285183
          ],
          [
            86.6390469,
            54.028665
          ],
          [
            86.6392726,
            54.0287688
          ],
          [
            86.6406815,
            54.0295489
          ],
          [
            86.6409007,
            54.0296574
          ],
          [
            86.6411206,
            54.0297125
          ],
          [
            86.6415149,
            54.0297614
          ],
          [
            86.6419119,
            54.0297818
          ],
          [
            86.6422605,
            54.0297897
          ],
          [
            86.642628,
            54.0297661
          ],
          [
            86.6436338,
            54.0295502
          ],
          [
            86.6439074,
            54.0295014
          ]
        ]
      },
      "id": "way/267391851"
    },
    {
      "type": "Feature",
      "properties": {
        "@id": "way/267391873",
        "highway": "secondary",
        "lanes": "2",
        "surface": "asphalt"
      },
      "geometry": {
        "type": "LineString",
        "coordinates": [
          [
            86.6439074,
            54.0295014
          ],
          [
            86.6441751,
            54.0294503
          ],
          [
            86.6444519,
            54.0294463
          ],
          [
            86.6448798,
            54.0294909
          ],
          [
            86.6476749,
            54.0299084
          ],
          [
            86.6506425,
            54.0303516
          ],
          [
            86.6516768,
            54.030298
          ],
          [
            86.6548362,
            54.0306978
          ],
          [
            86.6581732,
            54.0317858
          ],
          [
            86.6593597,
            54.0321727
          ],
          [
            86.6610623,
            54.0327533
          ],
          [
            86.6614886,
            54.0327503
          ],
          [
            86.6620164,
            54.0325838
          ],
          [
            86.6623985,
            54.0323611
          ]
        ]
      },
      "id": "way/267391873"
    },
    {
      "type": "Feature",
      "properties": {
        "@id": "way/267391885",
        "highway": "secondary",
        "lanes": "2",
        "surface": "asphalt"
      },
      "geometry": {
        "type": "LineString",
        "coordinates": [
          [
            86.6337903,
            54.0298082
          ],
          [
            86.634145,
            54.0295108
          ],
          [
            86.6343247,
            54.0293786
          ],
          [
            86.6351862,
            54.0287448
          ],
          [
            86.636251,
            54.0278367
          ],
          [
            86.6364938,
            54.0277117
          ],
          [
            86.6366818,
            54.0276949
          ]
        ]
      },
      "id": "way/267391885"
    },
    {
      "type": "Feature",
      "properties": {
        "@id": "way/267391887",
        "highway": "secondary",
        "name": "улица Пушкина",
        "name:etymology:wikidata": "Q7200"
      },
      "geometry": {
        "type": "LineString",
        "coordinates": [
          [
            86.6241837,
            54.0240969
          ],
          [
            86.6244957,
            54.0244361
          ],
          [
            86.6251107,
            54.0251049
          ],
          [
            86.6258068,
            54.0259205
          ],
          [
            86.6261431,
            54.0262817
          ],
          [
            86.6262388,
            54.0263845
          ],
          [
            86.6262722,
            54.0263956
          ],
          [
            86.6263941,
            54.0264803
          ],
          [
            86.6265631,
            54.0265258
          ],
          [
            86.6267764,
            54.02656
          ],
          [
            86.6275881,
            54.0267
          ],
          [
            86.6278927,
            54.026781
          ],
          [
            86.6281505,
            54.0268855
          ],
          [
            86.6289398,
            54.0272647
          ],
          [
            86.6298225,
            54.0277348
          ],
          [
            86.6303093,
            54.0279949
          ],
          [
            86.630725,
            54.0282238
          ],
          [
            86.6315109,
            54.0286155
          ],
          [
            86.632165,
            54.0290086
          ],
          [
            86.6330835,
            54.0294469
          ],
          [
            86.6337903,
            54.0298082
          ]
        ]
      },
      "id": "way/267391887"
    },
    {
      "type": "Feature",
      "properties": {
        "@id": "way/269481321",
        "highway": "primary",
        "name": "Ленинск-Кузнецкий — Новокузнецк — Междуреченск",
        "old_ref": "32К-2",
        "surface": "asphalt"
      },
      "geometry": {
        "type": "LineString",
        "coordinates": [
          [
            86.6764151,
            54.011814
          ],
          [
            86.6757694,
            54.0115414
          ]
        ]
      },
      "id": "way/269481321"
    },
    {
      "type": "Feature",
      "properties": {
        "@id": "way/269481328",
        "bridge": "yes",
        "highway": "primary",
        "lanes": "2",
        "layer": "1",
        "name": "Ленинск-Кузнецкий — Новокузнецк — Междуреченск",
        "old_ref": "32К-2",
        "surface": "asphalt"
      },
      "geometry": {
        "type": "LineString",
        "coordinates": [
          [
            86.6768404,
            54.0120273
          ],
          [
            86.6764151,
            54.011814
          ]
        ]
      },
      "id": "way/269481328"
    },
    {
      "type": "Feature",
      "properties": {
        "@id": "way/270519535",
        "highway": "secondary",
        "name": "улица Лутугина"
      },
      "geometry": {
        "type": "LineString",
        "coordinates": [
          [
            86.6623985,
            54.0323611
          ],
          [
            86.6628644,
            54.0324959
          ],
          [
            86.6634071,
            54.0326573
          ],
          [
            86.6645913,
            54.0330722
          ],
          [
            86.6649427,
            54.0331953
          ],
          [
            86.666489,
            54.0337416
          ],
          [
            86.6687642,
            54.0345251
          ],
          [
            86.6694737,
            54.0347695
          ],
          [
            86.6696952,
            54.0348458
          ],
          [
            86.6700796,
            54.0349781
          ],
          [
            86.6705947,
            54.0351555
          ],
          [
            86.6712918,
            54.0353828
          ],
          [
            86.6716361,
            54.0354955
          ],
          [
            86.6718399,
            54.0355255
          ],
          [
            86.6720574,
            54.0355316
          ],
          [
            86.6722718,
            54.0355444
          ],
          [
            86.6724723,
            54.0355756
          ],
          [
            86.6730971,
            54.0357581
          ],
          [
            86.6744959,
            54.0362742
          ],
          [
            86.6747637,
            54.0363585
          ],
          [
            86.6771995,
            54.0371589
          ],
          [
            86.6779974,
            54.0374235
          ],
          [
            86.6786526,
            54.0376418
          ],
          [
            86.6798728,
            54.0380718
          ],
          [
            86.6813925,
            54.038602
          ],
          [
            86.6822416,
            54.0388838
          ],
          [
            86.6827509,
            54.0390598
          ],
          [
            86.6843276,
            54.039577
          ],
          [
            86.6853189,
            54.0399188
          ],
          [
            86.6872181,
            54.0405751
          ],
          [
            86.6873195,
            54.0406167
          ],
          [
            86.6883811,
            54.040988
          ],
          [
            86.6890035,
            54.0412635
          ],
          [
            86.689446,
            54.0415502
          ],
          [
            86.6896958,
            54.0418135
          ],
          [
            86.6897395,
            54.0418595
          ],
          [
            86.68991,
            54.0422305
          ],
          [
            86.689975,
            54.04247
          ],
          [
            86.69002,
            54.042763
          ],
          [
            86.6900351,
            54.042956
          ]
        ]
      },
      "id": "way/270519535"
    },
    {
      "type": "Feature",
      "properties": {
        "@id": "way/270519548",
        "highway": "primary",
        "name": "Геологическая улица",
        "old_ref": "32К-2"
      },
      "geometry": {
        "type": "LineString",
        "coordinates": [
          [
            86.6958234,
            54.0263899
          ],
          [
            86.695269,
            54.0259259
          ],
          [
            86.6944014,
            54.0251998
          ],
          [
            86.6914421,
            54.0227232
          ],
          [
            86.6901488,
            54.0216407
          ],
          [
            86.6890205,
            54.0206595
          ],
          [
            86.688709,
            54.0203886
          ]
        ]
      },
      "id": "way/270519548"
    },
    {
      "type": "Feature",
      "properties": {
        "@id": "way/270519550",
        "highway": "primary",
        "lanes": "2",
        "name": "Ленинск-Кузнецкий — Новокузнецк — Междуреченск",
        "old_ref": "32К-2",
        "surface": "asphalt"
      },
      "geometry": {
        "type": "LineString",
        "coordinates": [
          [
            86.6872219,
            54.0190952
          ],
          [
            86.6859984,
            54.0180436
          ],
          [
            86.6848241,
            54.0170342
          ],
          [
            86.6845957,
            54.0168379
          ],
          [
            86.6839865,
            54.0163143
          ],
          [
            86.6836155,
            54.0159954
          ],
          [
            86.6832077,
            54.0156449
          ],
          [
            86.6827019,
            54.0152101
          ],
          [
            86.6822346,
            54.014783
          ],
          [
            86.6820938,
            54.0147185
          ],
          [
            86.6816719,
            54.0145251
          ],
          [
            86.6808034,
            54.0143094
          ],
          [
            86.6788926,
            54.0140462
          ],
          [
            86.6786045,
            54.0139914
          ],
          [
            86.6783189,
            54.0138729
          ],
          [
            86.678068,
            54.0137582
          ],
          [
            86.6778717,
            54.0136005
          ],
          [
            86.6776555,
            54.0132862
          ],
          [
            86.6775008,
            54.0126987
          ],
          [
            86.6774085,
            54.0124713
          ],
          [
            86.6773053,
            54.0123209
          ],
          [
            86.677136,
            54.0121963
          ],
          [
            86.6768404,
            54.0120273
          ]
        ]
      },
      "id": "way/270519550"
    },
    {
      "type": "Feature",
      "properties": {
        "@id": "way/279675090",
        "highway": "primary",
        "name": "Ленинск-Кузнецкий — Новокузнецк — Междуреченск",
        "old_ref": "32К-2",
        "surface": "asphalt"
      },
      "geometry": {
        "type": "LineString",
        "coordinates": [
          [
            86.6757694,
            54.0115414
          ],
          [
            86.676126,
            54.0112673
          ],
          [
            86.6765231,
            54.0109622
          ],
          [
            86.6769093,
            54.0106312
          ],
          [
            86.6771883,
            54.0103821
          ],
          [
            86.6773707,
            54.0101268
          ],
          [
            86.6775128,
            54.009832
          ],
          [
            86.6776067,
            54.0095531
          ],
          [
            86.6777891,
            54.0088847
          ],
          [
            86.6779152,
            54.0084056
          ],
          [
            86.6780922,
            54.0080399
          ],
          [
            86.6782343,
            54.0078239
          ],
          [
            86.678398,
            54.0075891
          ],
          [
            86.6785884,
            54.0073842
          ],
          [
            86.6788137,
            54.0072029
          ],
          [
            86.6791168,
            54.0069869
          ],
          [
            86.6794333,
            54.0068009
          ],
          [
            86.6801709,
            54.0064321
          ],
          [
            86.6826895,
            54.0055241
          ],
          [
            86.6836014,
            54.0052404
          ],
          [
            86.6843122,
            54.0050086
          ],
          [
            86.6850525,
            54.004758
          ],
          [
            86.6856238,
            54.0045247
          ],
          [
            86.6860852,
            54.0042882
          ],
          [
            86.6864446,
            54.0040344
          ],
          [
            86.686753,
            54.0037775
          ],
          [
            86.6870803,
            54.003437
          ],
          [
            86.6874048,
            54.0029987
          ],
          [
            86.6875577,
            54.0027544
          ],
          [
            86.6877025,
            54.0024737
          ],
          [
            86.6877669,
            54.0022136
          ],
          [
            86.6878179,
            54.0016776
          ],
          [
            86.6876381,
            53.9995562
          ],
          [
            86.6874263,
            53.9964134
          ],
          [
            86.6874129,
            53.9961627
          ],
          [
            86.6874209,
            53.9959829
          ],
          [
            86.6874611,
            53.9957937
          ],
          [
            86.6875067,
            53.9956376
          ],
          [
            86.6876489,
            53.9953774
          ],
          [
            86.6877884,
            53.9951993
          ],
          [
            86.6879815,
            53.9949565
          ],
          [
            86.6882765,
            53.9946443
          ],
          [
            86.6885032,
            53.9944117
          ],
          [
            86.6887808,
            53.9941657
          ],
          [
            86.6890544,
            53.9939623
          ],
          [
            86.6893119,
            53.9937755
          ],
          [
            86.6897625,
            53.9934853
          ],
          [
            86.6906932,
            53.9928972
          ],
          [
            86.6912484,
            53.992566
          ],
          [
            86.6916655,
            53.9923161
          ],
          [
            86.6920705,
            53.9921064
          ],
          [
            86.6924232,
            53.9919629
          ],
          [
            86.6930442,
            53.9917729
          ],
          [
            86.6938059,
            53.9915458
          ],
          [
            86.6941103,
            53.9914433
          ],
          [
            86.6943209,
            53.9913637
          ],
          [
            86.6945958,
            53.9912178
          ],
          [
            86.6947071,
            53.9911429
          ],
          [
            86.6948278,
            53.9910538
          ],
          [
            86.6949405,
            53.99096
          ],
          [
            86.6951644,
            53.9907148
          ],
          [
            86.695402,
            53.9903716
          ],
          [
            86.6955963,
            53.9901124
          ],
          [
            86.6958572,
            53.9897441
          ],
          [
            86.6959462,
            53.9896215
          ],
          [
            86.6963157,
            53.9890847
          ],
          [
            86.6964161,
            53.9889388
          ],
          [
            86.6964328,
            53.988677
          ]
        ]
      },
      "id": "way/279675090"
    },
    {
      "type": "Feature",
      "properties": {
        "@id": "way/279675093",
        "highway": "primary",
        "lanes": "2",
        "name": "Ленинск-Кузнецкий — Новокузнецк — Междуреченск",
        "old_ref": "32К-2"
      },
      "geometry": {
        "type": "LineString",
        "coordinates": [
          [
            86.6850234,
            54.047654
          ],
          [
            86.685454,
            54.0472467
          ],
          [
            86.6858127,
            54.0469242
          ],
          [
            86.6863445,
            54.0464325
          ],
          [
            86.6900351,
            54.042956
          ],
          [
            86.6916454,
            54.0410966
          ],
          [
            86.6921647,
            54.0404937
          ],
          [
            86.6925733,
            54.0400382
          ],
          [
            86.6929862,
            54.0395586
          ],
          [
            86.6934017,
            54.0390658
          ],
          [
            86.6937536,
            54.0386553
          ],
          [
            86.6941693,
            54.0381623
          ],
          [
            86.6948077,
            54.0374488
          ],
          [
            86.6949137,
            54.0372837
          ],
          [
            86.6956497,
            54.0371924
          ],
          [
            86.6966985,
            54.0370837
          ],
          [
            86.6982375,
            54.0369351
          ],
          [
            86.70003,
            54.036762
          ],
          [
            86.7010868,
            54.0366549
          ],
          [
            86.7034203,
            54.0364186
          ],
          [
            86.7040908,
            54.03628
          ],
          [
            86.7044985,
            54.0361004
          ],
          [
            86.7048258,
            54.0359209
          ],
          [
            86.7052388,
            54.0356373
          ],
          [
            86.7053783,
            54.0354672
          ],
          [
            86.7055339,
            54.0352309
          ],
          [
            86.7056304,
            54.0349915
          ],
          [
            86.7056572,
            54.0345945
          ],
          [
            86.7054641,
            54.0341597
          ],
          [
            86.7050135,
            54.0336746
          ],
          [
            86.7043698,
            54.0332335
          ],
          [
            86.7031532,
            54.0324335
          ],
          [
            86.7023313,
            54.0319039
          ],
          [
            86.7011726,
            54.0309681
          ],
          [
            86.6998047,
            54.0297614
          ],
          [
            86.6958234,
            54.0263899
          ]
        ]
      },
      "id": "way/279675093"
    },
    {
      "type": "Feature",
      "properties": {
        "@id": "way/355248887",
        "highway": "secondary",
        "lanes": "2",
        "lit": "yes",
        "maxspeed": "RU:urban",
        "name": "Западный проезд",
        "source:maxspeed": "implicit",
        "surface": "asphalt"
      },
      "geometry": {
        "type": "LineString",
        "coordinates": [
          [
            86.5401431,
            54.0010175
          ],
          [
            86.5388872,
            54.0023806
          ],
          [
            86.5385359,
            54.0027536
          ],
          [
            86.5384762,
            54.0028426
          ],
          [
            86.5384663,
            54.0029327
          ]
        ]
      },
      "id": "way/355248887"
    },
    {
      "type": "Feature",
      "properties": {
        "@id": "way/355248888",
        "highway": "secondary",
        "lanes": "2",
        "lit": "yes",
        "maxspeed": "RU:urban",
        "name": "Западный проезд",
        "source:maxspeed": "implicit",
        "surface": "asphalt"
      },
      "geometry": {
        "type": "LineString",
        "coordinates": [
          [
            86.5434827,
            53.99754
          ],
          [
            86.5433592,
            53.9976648
          ],
          [
            86.5428291,
            53.9982004
          ],
          [
            86.5424476,
            53.9986013
          ],
          [
            86.5423612,
            53.9986922
          ],
          [
            86.5417319,
            53.9993535
          ],
          [
            86.5404387,
            54.0007127
          ],
          [
            86.5401431,
            54.0010175
          ]
        ]
      },
      "id": "way/355248888"
    },
    {
      "type": "Feature",
      "properties": {
        "@id": "way/355248889",
        "highway": "secondary",
        "lanes": "2",
        "lit": "yes",
        "maxspeed": "RU:urban",
        "name": "Краснобродская улица",
        "source:maxspeed": "implicit",
        "surface": "asphalt"
      },
      "geometry": {
        "type": "LineString",
        "coordinates": [
          [
            86.556714,
            54.0047038
          ],
          [
            86.5559315,
            54.0053009
          ],
          [
            86.555105,
            54.0059315
          ],
          [
            86.5550173,
            54.0059984
          ],
          [
            86.554454,
            54.0064256
          ],
          [
            86.5536889,
            54.0070058
          ],
          [
            86.5530284,
            54.0074886
          ],
          [
            86.5523528,
            54.0079824
          ],
          [
            86.5522483,
            54.0080588
          ]
        ]
      },
      "id": "way/355248889"
    },
    {
      "type": "Feature",
      "properties": {
        "@id": "way/355248890",
        "highway": "secondary",
        "lanes": "2",
        "lit": "yes",
        "maxspeed": "RU:urban",
        "name": "Краснобродская улица",
        "source:maxspeed": "implicit",
        "surface": "asphalt"
      },
      "geometry": {
        "type": "LineString",
        "coordinates": [
          [
            86.5593253,
            54.0027559
          ],
          [
            86.5577376,
            54.0039386
          ],
          [
            86.5576244,
            54.0040241
          ],
          [
            86.5575287,
            54.0040956
          ],
          [
            86.5572691,
            54.0042894
          ],
          [
            86.5570485,
            54.0044541
          ],
          [
            86.556714,
            54.0047038
          ]
        ]
      },
      "id": "way/355248890"
    },
    {
      "type": "Feature",
      "properties": {
        "@id": "way/355248891",
        "highway": "secondary",
        "name": "Транспортная улица",
        "surface": "asphalt"
      },
      "geometry": {
        "type": "LineString",
        "coordinates": [
          [
            86.6446966,
            54.0092831
          ],
          [
            86.6429785,
            54.0089081
          ],
          [
            86.6427215,
            54.008852
          ],
          [
            86.6426362,
            54.0088334
          ],
          [
            86.6424432,
            54.008775
          ],
          [
            86.6423832,
            54.0087493
          ],
          [
            86.6419403,
            54.0085999
          ],
          [
            86.6417108,
            54.008517
          ],
          [
            86.6414163,
            54.0083981
          ],
          [
            86.6407106,
            54.0080567
          ],
          [
            86.6401765,
            54.0077751
          ],
          [
            86.6396485,
            54.0074844
          ],
          [
            86.6395483,
            54.0074299
          ],
          [
            86.637785,
            54.0064406
          ],
          [
            86.6374956,
            54.0063033
          ]
        ]
      },
      "id": "way/355248891"
    },
    {
      "type": "Feature",
      "properties": {
        "@id": "way/355248892",
        "highway": "secondary",
        "lit": "no",
        "maxspeed": "RU:rural",
        "passing_places": "no",
        "source": "GPS",
        "source:maxspeed": "implicit"
      },
      "geometry": {
        "type": "LineString",
        "coordinates": [
          [
            86.5446914,
            53.986754
          ],
          [
            86.5448408,
            53.9868472
          ],
          [
            86.5451307,
            53.9871187
          ]
        ]
      },
      "id": "way/355248892"
    },
    {
      "type": "Feature",
      "properties": {
        "@id": "way/355248893",
        "highway": "secondary",
        "lanes": "2",
        "lit": "no",
        "maxspeed": "RU:rural",
        "oneway": "yes",
        "passing_places": "no",
        "smoothness": "excellent",
        "source:maxspeed": "implicit",
        "surface": "asphalt"
      },
      "geometry": {
        "type": "LineString",
        "coordinates": [
          [
            86.5444468,
            53.9864501
          ],
          [
            86.5444797,
            53.9865491
          ],
          [
            86.5445477,
            53.9866253
          ],
          [
            86.5446914,
            53.986754
          ]
        ]
      },
      "id": "way/355248893"
    },
    {
      "type": "Feature",
      "properties": {
        "@id": "way/355248894",
        "highway": "secondary",
        "lanes": "2",
        "lit": "no",
        "maxspeed": "RU:rural",
        "oneway": "yes",
        "passing_places": "no",
        "smoothness": "excellent",
        "source:maxspeed": "implicit",
        "surface": "asphalt"
      },
      "geometry": {
        "type": "LineString",
        "coordinates": [
          [
            86.5440539,
            53.9865334
          ],
          [
            86.5441221,
            53.9865357
          ],
          [
            86.5442947,
            53.98653
          ],
          [
            86.5443663,
            53.9865051
          ],
          [
            86.5444468,
            53.9864501
          ]
        ]
      },
      "id": "way/355248894"
    },
    {
      "type": "Feature",
      "properties": {
        "@id": "way/355248895",
        "highway": "secondary",
        "name": "улица Ленина",
        "name:etymology:wikidata": "Q1394"
      },
      "geometry": {
        "type": "LineString",
        "coordinates": [
          [
            86.6299458,
            54.0070808
          ],
          [
            86.6282862,
            54.0079606
          ],
          [
            86.6276602,
            54.0082925
          ],
          [
            86.6271221,
            54.0085777
          ]
        ]
      },
      "id": "way/355248895"
    },
    {
      "type": "Feature",
      "properties": {
        "@id": "way/431622380",
        "highway": "secondary",
        "lanes": "2",
        "lit": "no",
        "maxspeed": "90",
        "name": "Тырган-Красный Камень",
        "passing_places": "no",
        "smoothness": "excellent",
        "source:maxspeed": "implicit",
        "surface": "asphalt"
      },
      "geometry": {
        "type": "LineString",
        "coordinates": [
          [
            86.5205213,
            53.9535308
          ],
          [
            86.5201205,
            53.9546774
          ],
          [
            86.5200376,
            53.9549784
          ],
          [
            86.5199593,
            53.9552628
          ],
          [
            86.5198966,
            53.9558243
          ],
          [
            86.5200054,
            53.9565422
          ],
          [
            86.5202224,
            53.9572096
          ],
          [
            86.5206779,
            53.9580057
          ],
          [
            86.5212445,
            53.9587971
          ],
          [
            86.5224099,
            53.9603907
          ],
          [
            86.5247398,
            53.9635688
          ],
          [
            86.5255449,
            53.9646796
          ],
          [
            86.5262193,
            53.96561
          ],
          [
            86.526901,
            53.9665259
          ],
          [
            86.5276131,
            53.9672609
          ],
          [
            86.5305907,
            53.9694875
          ],
          [
            86.5336822,
            53.9716354
          ],
          [
            86.5428477,
            53.9780065
          ],
          [
            86.5438661,
            53.9787774
          ],
          [
            86.5446216,
            53.9794628
          ],
          [
            86.5450453,
            53.9800873
          ],
          [
            86.5452849,
            53.9807792
          ],
          [
            86.5453352,
            53.9815933
          ],
          [
            86.5451361,
            53.9826819
          ],
          [
            86.5444468,
            53.9864501
          ]
        ]
      },
      "id": "way/431622380"
    },
    {
      "type": "Feature",
      "properties": {
        "@id": "way/1197032087",
        "highway": "primary",
        "lanes": "2",
        "name": "Ленинск-Кузнецкий — Новокузнецк — Междуреченск",
        "old_ref": "32К-2",
        "ref": "32К-446"
      },
      "geometry": {
        "type": "LineString",
        "coordinates": [
          [
            86.680892,
            54.055802
          ],
          [
            86.6826187,
            54.0517527
          ],
          [
            86.6833218,
            54.0497696
          ],
          [
            86.6839612,
            54.048843
          ],
          [
            86.6847373,
            54.0479743
          ]
        ]
      },
      "id": "way/1197032087"
    },
    {
      "type": "Feature",
      "properties": {
        "@id": "way/1197032088",
        "bridge": "yes",
        "highway": "primary",
        "lanes": "2",
        "layer": "1",
        "name": "Ленинск-Кузнецкий — Новокузнецк — Междуреченск",
        "old_ref": "32К-2"
      },
      "geometry": {
        "type": "LineString",
        "coordinates": [
          [
            86.6847373,
            54.0479743
          ],
          [
            86.6850234,
            54.047654
          ]
        ]
      },
      "id": "way/1197032088"
    },
    {
      "type": "Feature",
      "properties": {
        "@id": "way/1197040318",
        "highway": "primary",
        "name": "Геологическая улица",
        "old_ref": "32К-2"
      },
      "geometry": {
        "type": "LineString",
        "coordinates": [
          [
            86.688709,
            54.0203886
          ],
          [
            86.6884613,
            54.0201732
          ],
          [
            86.6877036,
            54.0195142
          ],
          [
            86.687445,
            54.0192893
          ],
          [
            86.6872219,
            54.0190952
          ]
        ]
      },
      "id": "way/1197040318"
    },
    {
      "type": "Feature",
      "properties": {
        "@id": "way/1409248880",
        "highway": "primary",
        "name": "Ленинск-Кузнецкий — Новокузнецк — Междуреченск",
        "old_ref": "32К-2",
        "surface": "asphalt"
      },
      "geometry": {
        "type": "LineString",
        "coordinates": [
          [
            86.6963183,
            53.9883255
          ],
          [
            86.6961412,
            53.9879338
          ],
          [
            86.6958668,
            53.9875202
          ],
          [
            86.6957116,
            53.9872628
          ],
          [
            86.6956097,
            53.9869947
          ],
          [
            86.6956043,
            53.9867455
          ],
          [
            86.6957521,
            53.9864878
          ],
          [
            86.6957931,
            53.9864309
          ],
          [
            86.6962456,
            53.9858031
          ],
          [
            86.6964374,
            53.9856047
          ],
          [
            86.6973117,
            53.9847905
          ],
          [
            86.6977086,
            53.9844551
          ],
          [
            86.6979388,
            53.9842368
          ],
          [
            86.698054,
            53.9841141
          ],
          [
            86.6981443,
            53.9839997
          ],
          [
            86.6982497,
            53.9838396
          ],
          [
            86.698309,
            53.9836711
          ],
          [
            86.6983387,
            53.9835184
          ],
          [
            86.6983294,
            53.9833636
          ],
          [
            86.6982704,
            53.9831766
          ],
          [
            86.6982025,
            53.9830419
          ],
          [
            86.6979859,
            53.9826888
          ],
          [
            86.6976625,
            53.982201
          ]
        ]
      },
      "id": "way/1409248880"
    },
    {
      "type": "Feature",
      "properties": {
        "@id": "way/1409248881",
        "bridge": "yes",
        "highway": "primary",
        "layer": "1",
        "name": "Ленинск-Кузнецкий — Новокузнецк — Междуреченск",
        "old_ref": "32К-2",
        "surface": "asphalt"
      },
      "geometry": {
        "type": "LineString",
        "coordinates": [
          [
            86.6964328,
            53.988677
          ],
          [
            86.696364,
            53.9884331
          ],
          [
            86.6963183,
            53.9883255
          ]
        ]
      },
      "id": "way/1409248881"
    }
  ]
}